CTC2_L_00471011-07
1 73411U 24642QE  26070.40848380  .00000000  00000+0  00000-0 0  9993
2 73411  21.0000 120.0000 0000000   0.0000 146.6667 12.95442273    10
CTC2_L_00471011-08
1 73412U 24442JA  26070.40848380  .00000000  00000+0  00000-0 0  9992
2 73412  21.0000 120.0000 0000000   0.0000 166.6667 12.95442273    13
CTC2_L_00471011-09
1 73413U 24168XZ  26070.40848380  .00000000  00000+0  00000-0 0  9998
2 73413  21.0000 120.0000 0000000   0.0000 186.6667 12.95442273    16
CTC2_L_00471011-10
1 73414U 24617GA  26070.40848380  .00000000  00000+0  00000-0 0  9998
2 73414  21.0000 120.0000 0000000   0.0000 206.6667 12.95442273    10
CTC2_L_00471011-11
1 73415U 24618ZT  26070.40848380  .00000000  00000+0  00000-0 0  9990
2 73415  21.0000 120.0000 0000000   0.0000 226.6667 12.95442273    13
CTC2_L_00471011-12
1 73416U 25631SN  26070.40848380  .00000000  00000+0  00000-0 0  9997
2 73416  21.0000 120.0000 0000000   0.0000 246.6667 12.95442273    16
CTC2_L_00471011-13
1 73417U 24248AM  26070.40848380  .00000000  00000+0  00000-0 0  9991
2 73417  21.0000 120.0000 0000000   0.0000 266.6667 12.95442273    19
CTC2_L_00471011-14
1 73418U 24911ZB  26070.40848380  .00000000  00000+0  00000-0 0  9999
2 73418  21.0000 120.0000 0000000   0.0000 286.6667 12.95442273    12
CTC2_L_00471011-15
1 73419U 24600JM  26070.40848380  .00000000  00000+0  00000-0 0  9995
2 73419  21.0000 120.0000 0000000   0.0000 306.6667 12.95442273    16
CTC2_L_00471011-16
1 73420U 25737JC  26070.40848380  .00000000  00000+0  00000-0 0  9999
2 73420  21.0000 120.0000 0000000   0.0000 326.6667 12.95442273    10
CTC2_L_00471011-17
1 73421U 22124RO  26070.40848380  .00000000  00000+0  00000-0 0  9997
2 73421  21.0000 120.0000 0000000   0.0000 346.6667 12.95442273    13
CTC2_L_00471011-18
1 73422U 26212UP  26070.40848380  .00000000  00000+0  00000-0 0  9990
2 73422  21.0000 120.0000 0000000   0.0000   6.6667 12.95442273    17
CTC2_L_00471012-01
1 73423U 23768TH  26070.40848380  .00000000  00000+0  00000-0 0  9994
2 73423  21.0000 132.0000 0000000   0.0000  29.3333 12.95442273    13
CTC2_L_00471012-02
1 73424U 25985HL  26070.40848380  .00000000  00000+0  00000-0 0  9998
2 73424  21.0000 132.0000 0000000   0.0000  49.3333 12.95442273    16
CTC2_L_00471012-03
1 73425U 22837QO  26070.40848380  .00000000  00000+0  00000-0 0  9992
2 73425  21.0000 132.0000 0000000   0.0000  69.3333 12.95442273    19
CTC2_L_00471012-04
1 73426U 22400UK  26070.40848380  .00000000  00000+0  00000-0 0  9999
2 73426  21.0000 132.0000 0000000   0.0000  89.3333 12.95442273    12
CTC2_L_00471012-05
1 73427U 26335KY  26070.40848380  .00000000  00000+0  00000-0 0  9991
2 73427  21.0000 132.0000 0000000   0.0000 109.3333 12.95442273    16
CTC2_L_00471012-06
1 73428U 22026ZG  26070.40848380  .00000000  00000+0  00000-0 0  9995
2 73428  21.0000 132.0000 0000000   0.0000 129.3333 12.95442273    19
CTC2_L_00471012-07
1 73429U 23924HX  26070.40848380  .00000000  00000+0  00000-0 0  9994
2 73429  21.0000 132.0000 0000000   0.0000 149.3333 12.95442273    12
CTC2_L_00471012-08
1 73430U 23792UO  26070.40848380  .00000000  00000+0  00000-0 0  9999
2 73430  21.0000 132.0000 0000000   0.0000 169.3333 12.95442273    16
CTC2_L_00471012-09
1 73431U 25023LZ  26070.40848380  .00000000  00000+0  00000-0 0  9999
2 73431  21.0000 132.0000 0000000   0.0000 189.3333 12.95442273    19
CTC2_L_00471012-10
1 73432U 24071JY  26070.40848380  .00000000  00000+0  00000-0 0  9992
2 73432  21.0000 132.0000 0000000   0.0000 209.3333 12.95442273    13
CTC2_L_00471012-11
1 73433U 22154KW  26070.40848380  .00000000  00000+0  00000-0 0  9993
2 73433  21.0000 132.0000 0000000   0.0000 229.3333 12.95442273    16
CTC2_L_00471012-12
1 73434U 26415EW  26070.40848380  .00000000  00000+0  00000-0 0  9998
2 73434  21.0000 132.0000 0000000   0.0000 249.3333 12.95442273    19
CTC2_L_00471012-13
1 73435U 25412RU  26070.40848380  .00000000  00000+0  00000-0 0  9995
2 73435  21.0000 132.0000 0000000   0.0000 269.3333 12.95442273    12
CTC2_L_00471012-14
1 73436U 24522IY  26070.40848380  .00000000  00000+0  00000-0 0  9997
2 73436  21.0000 132.0000 0000000   0.0000 289.3333 12.95442273    15
CTC2_L_00471012-15
1 73437U 24730GC  26070.40848380  .00000000  00000+0  00000-0 0  9999
2 73437  21.0000 132.0000 0000000   0.0000 309.3333 12.95442273    19
CTC2_L_00471012-16
1 73438U 22063LO  26070.40848380  .00000000  00000+0  00000-0 0  9997
2 73438  21.0000 132.0000 0000000   0.0000 329.3333 12.95442273    12
CTC2_L_00471012-17
1 73439U 23036TM  26070.40848380  .00000000  00000+0  00000-0 0  9999
2 73439  21.0000 132.0000 0000000   0.0000 349.3333 12.95442273    15
CTC2_L_00471012-18
1 73440U 25106MS  26070.40848380  .00000000  00000+0  00000-0 0  9991
2 73440  21.0000 132.0000 0000000   0.0000   9.3333 12.95442273    10
CTC2_L_00471013-01
1 73441U 25324PN  26070.40848380  .00000000  00000+0  00000-0 0  9994
2 73441  21.0000 144.0000 0000000   0.0000  32.0000 12.95442273    18
CTC2_L_00471013-02
1 73442U 24838QP  26070.40848380  .00000000  00000+0  00000-0 0  9994
2 73442  21.0000 144.0000 0000000   0.0000  52.0000 12.95442273    11
CTC2_L_00471013-03
1 73443U 26321HX  26070.40848380  .00000000  00000+0  00000-0 0  9994
2 73443  21.0000 144.0000 0000000   0.0000  72.0000 12.95442273    14
CTC2_L_00471013-04
1 73444U 23476UV  26070.40848380  .00000000  00000+0  00000-0 0  9993
2 73444  21.0000 144.0000 0000000   0.0000  92.0000 12.95442273    17
CTC2_L_00471013-05
1 73445U 25477W   26070.40848380  .00000000  00000+0  00000-0 0  9997
2 73445  21.0000 144.0000 0000000   0.0000 112.0000 12.95442273    11
CTC2_L_00471013-06
1 73446U 23381XP  26070.40848380  .00000000  00000+0  00000-0 0  9990
2 73446  21.0000 144.0000 0000000   0.0000 132.0000 12.95442273    14
CTC2_L_00471013-07
1 73447U 24155KB  26070.40848380  .00000000  00000+0  00000-0 0  9991
2 73447  21.0000 144.0000 0000000   0.0000 152.0000 12.95442273    17
CTC2_L_00471013-08
1 73448U 23376SL  26070.40848380  .00000000  00000+0  00000-0 0  9996
2 73448  21.0000 144.0000 0000000   0.0000 172.0000 12.95442273    10
CTC2_L_00471013-09
1 73449U 22441VY  26070.40848380  .00000000  00000+0  00000-0 0  9999
2 73449  21.0000 144.0000 0000000   0.0000 192.0000 12.95442273    13
CTC2_L_00471013-10
1 73450U 23253AZ  26070.40848380  .00000000  00000+0  00000-0 0  9993
2 73450  21.0000 144.0000 0000000   0.0000 212.0000 12.95442273    18
CTC2_L_00471013-11
1 73451U 25648TA  26070.40848380  .00000000  00000+0  00000-0 0  9994
2 73451  21.0000 144.0000 0000000   0.0000 232.0000 12.95442273    11
CTC2_L_00471013-12
1 73452U 22316NA  26070.40848380  .00000000  00000+0  00000-0 0  9994
2 73452  21.0000 144.0000 0000000   0.0000 252.0000 12.95442273    14
CTC2_L_00471013-13
1 73453U 26644FF  26070.40848380  .00000000  00000+0  00000-0 0  9993
2 73453  21.0000 144.0000 0000000   0.0000 272.0000 12.95442273    17
CTC2_L_00471013-14
1 73454U 23462BX  26070.40848380  .00000000  00000+0  00000-0 0  9999
2 73454  21.0000 144.0000 0000000   0.0000 292.0000 12.95442273    10
CTC2_L_00471013-15
1 73455U 26465OA  26070.40848380  .00000000  00000+0  00000-0 0  9996
2 73455  21.0000 144.0000 0000000   0.0000 312.0000 12.95442273    14
CTC2_L_00471013-16
1 73456U 25151EU  26070.40848380  .00000000  00000+0  00000-0 0  9998
2 73456  21.0000 144.0000 0000000   0.0000 332.0000 12.95442273    17
CTC2_L_00471013-17
1 73457U 22868HK  26070.40848380  .00000000  00000+0  00000-0 0  9991
2 73457  21.0000 144.0000 0000000   0.0000 352.0000 12.95442273    10
CTC2_L_00471013-18
1 73458U 25479TE  26070.40848380  .00000000  00000+0  00000-0 0  9993
2 73458  21.0000 144.0000 0000000   0.0000  12.0000 12.95442273    14
CTC2_L_00471014-01
1 73459U 22182DZ  26070.40848380  .00000000  00000+0  00000-0 0  9992
2 73459  21.0000 156.0000 0000000   0.0000  34.6667 12.95442273    17
CTC2_L_00471014-02
1 73460U 23391GC  26070.40848380  .00000000  00000+0  00000-0 0  9997
2 73460  21.0000 156.0000 0000000   0.0000  54.6667 12.95442273    11
CTC2_L_00471014-03
1 73461U 26991XF  26070.40848380  .00000000  00000+0  00000-0 0  9997
2 73461  21.0000 156.0000 0000000   0.0000  74.6667 12.95442273    14
CTC2_L_00471014-04
1 73462U 22489DD  26070.40848380  .00000000  00000+0  00000-0 0  9996
2 73462  21.0000 156.0000 0000000   0.0000  94.6667 12.95442273    17
CTC2_L_00471014-05
1 73463U 25450AV  26070.40848380  .00000000  00000+0  00000-0 0  9998
2 73463  21.0000 156.0000 0000000   0.0000 114.6667 12.95442273    11
CTC2_L_00471014-06
1 73464U 26523UZ  26070.40848380  .00000000  00000+0  00000-0 0  9991
2 73464  21.0000 156.0000 0000000   0.0000 134.6667 12.95442273    14
CTC2_L_00471014-07
1 73465U 24736IV  26070.40848380  .00000000  00000+0  00000-0 0  9996
2 73465  21.0000 156.0000 0000000   0.0000 154.6667 12.95442273    17
CTC2_L_00471014-08
1 73466U 26417VW  26070.40848380  .00000000  00000+0  00000-0 0  9995
2 73466  21.0000 156.0000 0000000   0.0000 174.6667 12.95442273    10
CTC2_L_00471014-09
1 73467U 22734GH  26070.40848380  .00000000  00000+0  00000-0 0  9994
2 73467  21.0000 156.0000 0000000   0.0000 194.6667 12.95442273    13
CTC2_L_00471014-10
1 73468U 24664JD  26070.40848380  .00000000  00000+0  00000-0 0  9999
2 73468  21.0000 156.0000 0000000   0.0000 214.6667 12.95442273    17
CTC2_L_00471014-11
1 73469U 24550DV  26070.40848380  .00000000  00000+0  00000-0 0  9994
2 73469  21.0000 156.0000 0000000   0.0000 234.6667 12.95442273    10
CTC2_L_00471014-12
1 73470U 23226UH  26070.40848380  .00000000  00000+0  00000-0 0  9995
2 73470  21.0000 156.0000 0000000   0.0000 254.6667 12.95442273    14
CTC2_L_00471014-13
1 73471U 22211M   26070.40848380  .00000000  00000+0  00000-0 0  9999
2 73471  21.0000 156.0000 0000000   0.0000 274.6667 12.95442273    17
CTC2_L_00471014-14
1 73472U 26110YP  26070.40848380  .00000000  00000+0  00000-0 0  9992
2 73472  21.0000 156.0000 0000000   0.0000 294.6667 12.95442273    10
